SL-16 R/B               
1 22566U 93016B   25364.44532609  .00000087  00000+0  69173-4 0  9997
2 22566  71.0087   0.6155 0008052  61.9475 298.2461 14.15295271692376
COSMOS 2242             
1 22626U 93024A   25364.96096944  .00003739  00000+0  32868-3 0  9994
2 22626  82.5191 332.4275 0016506 170.2154 189.9393 14.96194430770119
SL-16 R/B               
1 22803U 93059B   25364.87168359  .00000108  00000+0  77297-4 0  9992
2 22803  70.9898 156.2507 0018942 310.0891  49.8571 14.17219147669787
ARIANE 40 R/B           
1 22830U 93061H   25364.77489173  .00000471  00000+0  18856-3 0  9992
2 22830  98.5051  69.9746 0011686 125.6373 234.5901 14.32814939684236
COSMOS 2278             
1 23087U 94023A   25364.57081488  .00000353  00000+0  20898-3 0  9999
2 23087  71.0539 319.7041 0007587 147.1947 212.9648 14.14351542635031
SL-16 R/B               
1 23088U 94023B   25364.93146252  .00000028  00000+0  39270-4 0  9995
2 23088  70.9973 215.2832 0002366 358.1213   1.9900 14.14998590636364
SL-16 R/B               
1 23343U 94074B   25364.67724152  .00000851  00000+0  12089-3 0  9999
2 23343  97.7186  33.2672 0008060  87.1367  26.7453 14.79312611677040
SL-16 R/B               
1 23405U 94077B   25364.79856322 -.00000219  00000+0 -87668-4 0  9995
2 23405  70.9826 137.4231 0005032 269.7964  90.2582 14.15550572606487
ARIANE 40+ R/B          
1 23561U 95021B   25364.81606394  .00000541  00000+0  18673-3 0  9998
2 23561  98.4628  72.1850 0006521 357.9547 113.6885 14.39710943609337
SL-16 R/B               
1 23705U 95058B   25364.94350300  .00000182  00000+0  11716-3 0  9997
2 23705  71.0220 324.5849 0014372 230.7730 129.2118 14.15482327558127
SL-16 R/B               
1 24298U 96051B   25364.90236981  .00000039  00000+0  47853-4 0  9996
2 24298  70.7598 320.8384 0019429 239.0496 120.8714 14.12398590511933
ORBVIEW 2 (SEASTAR)     
1 24883U 97037A   25364.41139019  .00000572  00000+0  21531-3 0  9997
2 24883  98.8468 161.9320 0001244 259.3726 100.7318 14.35431722498538
